FLOCK 4G-26             
1 62633U 25009AA  26068.80489479  .00011283  00000+0  42469-3 0  9999
2 62633  97.4054 151.3913 0001988 299.1273  60.9767 15.27281631 63733
STARLINK-36493          
1 67456U 26008M   26068.42628467  .00035696  00000+0  12998-2 0  9994
2 67456  43.0004 206.5646 0002207 280.1015  79.9588 15.27594532  9534
